FENGYUN 3C              
1 39260U 13052A   22315.04020117  .00000129  00000+0  86473-4 0  9992
2 39260  98.4445 335.6653 0010494 207.4343 152.6293 14.15958162472663
METEOR-M 2              
1 40069U 14037A   22315.16356028  .00000046  00000+0  40294-4 0  9990
2 40069  98.4289 326.2547 0004585 254.9867 105.0782 14.20725879432695
HIMAWARI-8              
1 40267U 14060A   22314.82827215 -.00000267  00000+0  00000+0 0  9991
2 40267   0.0541 108.2469 0001353 150.6594 229.9175  1.00272642 29586
FENGYUN 2G              
1 40367U 14090A   22315.02979194 -.00000292  00000+0  00000+0 0  9990
2 40367   2.2995  87.9325 0001886 209.3689 222.9146  1.00279338 28866
METEOSAT-11 (MSG-4)     
1 40732U 15034A   22315.11438332  .00000005  00000+0  00000+0 0  9990
2 40732   0.5004 344.6295 0001132 140.0827 327.0131  1.00266191 26831
ELEKTRO-L 2             
1 41105U 15074A   22314.87752652 -.00000106  00000+0  00000+0 0  9998
2 41105   3.3519  86.3740 0002736 129.8684 135.2470  1.00270890 25330
HIMAWARI-9              
1 41836U 16064A   22314.62079425 -.00000267  00000+0  00000+0 0  9990
2 41836   0.0337 153.6097 0001108 100.6677 159.7109  1.00269996 22003
GOES 16                 
1 41866U 16071A   22314.77980300 -.00000239  00000+0  00000+0 0  9999
2 41866   0.0405 272.8069 0001015 358.7951 343.8693  1.00271317 21938
FENGYUN 4A              
1 41882U 16077A   22314.38512852 -.00000320  00000+0  00000+0 0  9994
2 41882   0.1172 289.4804 0004647 117.1374 246.0310  1.00264031 21798
CYGFM05                 
1 41884U 16078A   22315.23005964  .00003823  00000+0  18861-3 0  9991
2 41884  34.9575   7.1720 0014740 324.1889  35.7835 15.17285195327184
CYGFM04                 
1 41885U 16078B   22314.50625617  .00004912  00000+0  23821-3 0  9996
2 41885  34.9505   0.0880 0013063 335.7364  24.2732 15.17828487327186
CYGFM02                 
1 41886U 16078C   22314.82224816  .00004383  00000+0  21245-3 0  9998
2 41886  34.9596   0.3717 0013778 332.1144  27.8829 15.17871508327154
CYGFM01                 
1 41887U 16078D   22315.25091384  .00003970  00000+0  19687-3 0  9997
2 41887  34.9540   9.6714 0015175 323.6009  36.3670 15.17085101327156
CYGFM08                 
1 41888U 16078E   22315.18936652  .00004321  00000+0  21122-3 0  9994
2 41888  34.9513   2.0047 0014216 335.8317  24.1727 15.17575698327192
CYGFM06                 
1 41889U 16078F   22314.47220448  .00004666  00000+0  22602-3 0  9991
2 41889  34.9591   1.2095 0012789 328.6153  31.3795 15.17885170327042
CYGFM07                 
1 41890U 16078G   22315.18666182  .00003953  00000+0  19211-3 0  9991
2 41890  34.9530 355.6135 0012504 339.8511  20.1707 15.17819644327283
CYGFM03                 
1 41891U 16078H   22314.46173715  .00004754  00000+0  23074-3 0  9999
2 41891  34.9564   0.6464 0012096 331.1641  28.8402 15.17816833327013
FENGYUN 3D              
1 43010U 17072A   22315.27699419  .00000143  00000+0  89861-4 0  9998
2 43010  98.8316 259.2410 0001001 164.6296 195.4913 14.19109941258594
NOAA 20                 
1 43013U 17073A   22315.18345885  .00000090  00000+0  63306-4 0  9994
2 43013  98.7295 251.5069 0001241  58.2421 301.8876 14.19558237258048
GOES 17                 
1 43226U 18022A   22314.69569712  .00000107  00000+0  00000+0 0  9993
2 43226   0.0130 264.7187 0000618 333.1046 285.1418  1.00271679 17249
FENGYUN 2H              
1 43491U 18050A   22315.09751906 -.00000117  00000+0  00000+0 0  9993
2 43491   1.5166  94.3624 0003424  77.7290 352.3093  1.00270566 16330
METOP-C                 
1 43689U 18087A   22315.12943000  .00000145  00000+0  86405-4 0  9992
2 43689  98.7162  12.8196 0002747 352.2695   7.8440 14.21486076208141
GEO-KOMPSAT-2A          
1 43823U 18100A   22314.56220297 -.00000335  00000+0  00000+0 0  9995
2 43823   0.0567  94.2999 0000547  76.1128 209.9614  1.00270769 14483
METEOR-M2 2             
1 44387U 19038A   22315.31463732  .00000070  00000+0  50207-4 0  9993
2 44387  98.7432 275.0477 0001117 155.7137 204.4100 14.23729919174305
FENGYUN 3E              
1 49008U 21062A   22315.31267214  .00000060  00000+0  49116-4 0  9991
2 49008  98.7173 314.9956 0000925 313.9286  46.1777 14.19745661 70152
GOES 18                 
1 51850U 22021A   22312.54367326  .00000102  00000+0  00000+0 0  9993
2 51850   0.0048  46.0293 0002349 187.2312 233.2518  1.00271956  2589
JPSS-2                  
1 54234U 22150A   22315.29457517 -.00000044  00000+0  00000+0 0  9998
2 54234  98.6972 251.6719 0023172 237.2019  98.6710 14.24367360   110
ANGOSAT 2               
1 54033U 22131A   22312.50373545  .00000140  00000+0  00000+0 0  9999
2 54033   0.0233 265.8761 0000290 332.1078  14.0461  1.00270138   272
BLOCK DM-SL R/B         
1 54034U 22131B   22314.33718032 -.00000125  00000+0  00000+0 0  9991
2 54034   0.0996 291.2001 0083431 166.7467 263.0307  0.97749731   270
HJ-2E                   
1 54035U 22132A   22315.16419968  .00011890  00000+0  49067-3 0  9991
2 54035  97.3935 320.3072 0013511 161.0308 263.4775 15.24108692  4446
2022-132B               
1 54036U 22132B   22315.02651713  .00189698  00000+0  47050-2 0  9994
2 54036  97.3540 320.4958 0029623 209.0205 211.7332 15.39189223  4454
2022-132C               
1 54037U 22132C   22315.26581686  .00025719  00000+0  24492-2 0  9990
2 54037  97.6505 319.4249 0187656  76.4446 285.7537 14.80959637  4338
2022-132D               
1 54038U 22132D   22315.27509361  .00046510  00000+0  21819-2 0  9994
2 54038  97.5882 320.7031 0098851 131.7961 229.1908 15.15188854  4434
CZ-2C R/B               
1 54039U 22132E   22315.24296589  .00004338  00000+0  22325-3 0  9993
2 54039  97.2514 319.3051 0049447 110.1231 250.5332 15.15850282  4438
2022-132F               
1 54040U 22132F   22315.26783578  .00050860  00000+0  27014-2 0  9996
2 54040  97.1588 318.8654 0122625 123.0570 238.2693 15.08786709  4417
2022-132G               
1 54041U 22132G   22315.23191734  .00022417  00000+0  19035-2 0  9992
2 54041  97.1914 318.1618 0150233  72.0344 289.7049 14.89475084  4350
YAOGAN-36 02A           
1 54042U 22133A   22315.19352870 -.00010973  00000+0 -44556-3 0  9992
2 54042  34.9998 114.1766 0005965 165.0007   9.5375 15.23662328  4189
YAOGAN-36 02B           
1 54043U 22133B   22315.22456019  .00011713  00000+0  47586-3 0  9994
2 54043  34.9973 113.9737 0005491 186.6771 162.6261 15.23765986  4188
CZ-2D R/B               
1 54044U 22133C   22314.81070680  .00027407  00000+0  10282-2 0  9994
2 54044  34.9948 116.2444 0006301 171.0743 189.0085 15.26279102  4135
YAOGAN-36 02C           
1 54045U 22133D   22315.22259259  .00015781  00000+0  64143-3 0  9990
2 54045  34.9964 113.9472 0007084 181.2696 171.2812 15.23694268  4185
CZ-2D DEB               
1 54046U 22133E   22314.62101962  .00029427  00000+0  11194-2 0  9990
2 54046  34.9964 117.5419 0005883 157.7166 202.3679 15.25811228  4100
2022-134A               
1 54048U 22134A   22312.80000000 -.00000104  00000+0  00000+0 0  9995
2 54048  19.1010 296.9110 7600857 186.1020 195.6740  1.12706066   308
2022-134B               
1 54049U 22134B   22314.58507635  .00000155  00000+0  10339-2 0  9993
2 54049  26.6133 295.8742 8052420 188.4091 135.4139  1.34300980   356
COSMOS 2560             
1 54050U 22135A   22315.27132285  .00292972  32638-4  10210-2 0  9993
2 54050  96.3438  41.2709 0007911 160.2731 282.2124 15.89284682  4176
STARLINK-5195           
1 54051U 22136A   22314.91667824 -.01217609  00000+0 -15471-1 0  9990
2 54051  53.2169  42.6654 0001737  33.3018 209.9881 15.61631098  1307
STARLINK-5189           
1 54052U 22136B   22315.33334491  .00039369  00000+0  28358-3 0  9991
2 54052  53.2173  39.9721 0002512  35.7421 359.3852 15.73200594  3938
STARLINK-5176           
1 54053U 22136C   22314.91667824 -.01225328  00000+0 -15556-1 0  9993
2 54053  53.2170  42.6632 0001609  31.9364 212.5072 15.61672101  1305
STARLINK-5163           
1 54054U 22136D   22315.33334491 -.01201919  00000+0 -15805-1 0  9999
2 54054  53.2171  40.6294 0005970 273.1203 157.4871 15.60660519  3929
STARLINK-5158           
1 54055U 22136E   22315.33334491 -.01216929  00000+0 -16075-1 0  9997
2 54055  53.2171  40.6332 0001704  33.1446  36.1300 15.60631431  3928
STARLINK-5226           
1 54056U 22136F   22314.91667824 -.01221649  00000+0 -15440-1 0  9990
2 54056  53.2169  42.6540 0001621  40.9381 207.6463 15.61777768  1301
STARLINK-5216           
1 54057U 22136G   22314.91667824 -.00005124  00000+0 -47706-4 0  9991
2 54057  53.2159  42.6506 0002290  53.5299 199.5150 15.63979393  1306
STARLINK-5167           
1 54058U 22136H   22314.91667824 -.01214816  00000+0 -15277-1 0  9998
2 54058  53.2168  42.6462 0001546  42.1880 210.0677 15.61890144  1308
STARLINK-5173           
1 54059U 22136J   22315.33334491 -.01223413  00000+0 -16075-1 0  9997
2 54059  53.2171  40.6230 0001346  53.0400  21.2790 15.60787304  3921
STARLINK-5169           
1 54060U 22136K   22314.91667824  .00028489  00000+0  20695-3 0  9999
2 54060  53.2146  41.6678 0002073  22.1774 347.6442 15.73172338  1309
STARLINK-5209           
1 54061U 22136L   22315.33334491  .00094005  00000+0  38652-3 0  9997
2 54061  53.2162  39.1477 0006315 159.6792 278.8042 15.85218685  3948
STARLINK-5170           
1 54062U 22136M   22315.33334491 -.01195934  00000+0 -15642-1 0  9996
2 54062  53.2172  40.6162 0001187  63.2988  14.1087 15.60841216  3920
STARLINK-5225           
1 54063U 22136N   22315.33334491 -.01207110  00000+0 -15773-1 0  9992
2 54063  53.2171  40.6140 0001670  34.2918  44.3820 15.60888273  3928
STARLINK-5172           
1 54064U 22136P   22315.33334491 -.00072106  00000+0 -51194-3 0  9996
2 54064  53.2150  40.3469 0003272   6.7913 202.8652 15.73273175  3934
STARLINK-5187           
1 54065U 22136Q   22315.33334491 -.01219478  00000+0 -15899-1 0  9993
2 54065  53.2171  40.6092 0001782  33.1077  48.0683 15.60974315  3925
